API VERSION: 1.2
API SOURCE: NASA/JPL Horizons API



*******************************************************************************
Ephemeris / API_USER Mon Apr 13 11:59:00 2026 Pasadena, USA      / Horizons
*******************************************************************************
Target body name: Mars (499)                      {source: mar099}
Center body name: Earth (399)                     {source: DE441}
Center-site name: BODY CENTER
*******************************************************************************
Start time      : A.D. 2025-Sep-22 20:24:00.0000 TDB
Stop  time      : A.D. 2025-Sep-24 20:24:00.0000 TDB
Step-size       : 60 minutes
*******************************************************************************
Center geodetic : 0.0, 0.0, 0.0                   {E-lon(deg),Lat(deg),Alt(km)}
Center cylindric: 0.0, 0.0, 0.0                   {E-lon(deg),Dxy(km),Dz(km)}
Center radii    : 6378.137, 6378.137, 6356.752 km {Equator_a, b, pole_c}
Output units    : AU-D
Calendar mode   : Mixed Julian/Gregorian
Output type     : GEOMETRIC cartesian states
Output format   : 3 (position, velocity, LT, range, range-rate)
EOP file        : eop.260410.p260707
EOP coverage    : DATA-BASED 1962-JAN-20 TO 2026-APR-10. PREDICTS-> 2026-JUL-06
Reference frame : Ecliptic of J2000.0
*******************************************************************************
            JDTDB,            Calendar Date (TDB),                      X,                      Y,                      Z,                     VX,                     VY,                     VZ,                     LT,                     RG,                     RR,
**************************************************************************************************************************************************************************************************************************************************************************
$$SOE
2460941.350000000, A.D. 2025-Sep-22 20:24:00.0000, -2.022348842283798E+00, -1.167508790131918E+00,  4.204716803852601E-04,  1.128816761042243E-02, -2.512681024825423E-02, -4.387429861445319E-04,  1.348675885028171E-02,  2.335159907098087E+00,  2.786522085956806E-03,
2460941.391666667, A.D. 2025-Sep-22 21:24:00.0000, -2.021878175789055E+00, -1.168555661051461E+00,  4.021907420318972E-04,  1.130382397100049E-02, -2.512299210004678E-02, -4.387420382066061E-04,  1.348742916925435E-02,  2.335275969230379E+00,  2.784460285989590E-03,
2460941.433333333, A.D. 2025-Sep-22 22:24:00.0000, -2.021406856966824E+00, -1.169602372657710E+00,  3.839098452611351E-04,  1.131947932744693E-02, -2.511916320874455E-02, -4.387409898319736E-04,  1.348809899207767E-02,  2.335391945457081E+00,  2.782398617920710E-03,
2460941.475000000, A.D. 2025-Sep-22 23:24:00.0000, -2.020934885859288E+00, -1.170648924502896E+00,  3.656289943223556E-04,  1.133513366234537E-02, -2.511532356853745E-02, -4.387398375248512E-04,  1.348876831878397E-02,  2.335507835783781E+00,  2.780337087481510E-03,
2460941.516666667, A.D. 2025-Sep-23 00:24:00.0000, -2.020462262509422E+00, -1.171695316139150E+00,  3.473481936355689E-04,  1.135078695611967E-02, -2.511147318091066E-02, -4.387385771417954E-04,  1.348943714940764E-02,  2.335623640216437E+00,  2.778275705904970E-03,
2460941.558333333, A.D. 2025-Sep-23 01:24:00.0000, -2.019988986960980E+00, -1.172741547118810E+00,  3.290674477648684E-04,  1.136643919132422E-02, -2.510761205373381E-02, -4.387372060717551E-04,  1.349010548398602E-02,  2.335739358761515E+00,  2.776214485773673E-03,
2460941.600000000, A.D. 2025-Sep-23 02:24:00.0000, -2.019515059258359E+00, -1.173787616994630E+00,  3.107867613327676E-04,  1.138209035547194E-02, -2.510374019864518E-02, -4.387357245361499E-04,  1.349077332255931E-02,  2.335854991425974E+00,  2.774153437279230E-03,
2460941.641666667, A.D. 2025-Sep-23 03:24:00.0000, -2.019040479446294E+00, -1.174833525319835E+00,  2.925061388609269E-04,  1.139774044428569E-02, -2.509985762519703E-02, -4.387341368903914E-04,  1.349144066516924E-02,  2.335970538217037E+00,  2.772092562483830E-03,
2460941.683333333, A.D. 2025-Sep-23 04:24:00.0000, -2.018565247569621E+00, -1.175879271647880E+00,  2.742255846577957E-04,  1.141338945641163E-02, -2.509596433430712E-02, -4.387324484172306E-04,  1.349210751185712E-02,  2.336085999141861E+00,  2.770031856597354E-03,
2460941.725000000, A.D. 2025-Sep-23 05:24:00.0000, -2.018089363673277E+00, -1.176924855532071E+00,  2.559451028506855E-04,  1.142903738705185E-02, -2.509206031851419E-02, -4.387306620171802E-04,  1.349277386266282E-02,  2.336201374207346E+00,  2.767971313588238E-03,
2460941.766666667, A.D. 2025-Sep-23 06:24:00.0000, -2.017612827802569E+00, -1.177970276525346E+00,  2.376646975382213E-04,  1.144468422294187E-02, -2.508814556934949E-02, -4.387287760845358E-04,  1.349343971762544E-02,  2.336316663420262E+00,  2.765910934211952E-03,
2460941.808333333, A.D. 2025-Sep-23 07:24:00.0000, -2.017135640003492E+00, -1.179015534180399E+00,  2.193843729473727E-04,  1.146032994567253E-02, -2.508422008389571E-02, -4.387267866882185E-04,  1.349410507678522E-02,  2.336431866787579E+00,  2.763850726439247E-03,
2460941.850000000, A.D. 2025-Sep-23 08:24:00.0000, -2.016657800322823E+00, -1.180060628049938E+00,  2.011041334717539E-04,  1.147597453621900E-02, -2.508028386595684E-02, -4.387246900172433E-04,  1.349476994018481E-02,  2.336546984316680E+00,  2.761790702145113E-03,
2460941.891666667, A.D. 2025-Sep-23 09:24:00.0000, -2.016179308808091E+00, -1.181105557686974E+00,  1.828239836299375E-04,  1.149161797853351E-02, -2.507633692569465E-02, -4.387224842332109E-04,  1.349543430786994E-02,  2.336662016015482E+00,  2.759730873841401E-03,
2460941.933333333, A.D. 2025-Sep-23 10:24:00.0000, -2.015700165507357E+00, -1.182150322644991E+00,  1.645439279435338E-04,  1.150726026345282E-02, -2.507237927492032E-02, -4.387201711917643E-04,  1.349609817988880E-02,  2.336776961892330E+00,  2.757671248944482E-03,
2460941.975000000, A.D. 2025-Sep-23 11:24:00.0000, -2.015220370468915E+00, -1.183194922477902E+00,  1.462639707843430E-04,  1.152290138841914E-02, -2.506841092115720E-02, -4.387177558936805E-04,  1.349676155629044E-02,  2.336891821955716E+00,  2.755611827023198E-03,
2460942.016666667, A.D. 2025-Sep-23 12:24:00.0000, -2.014739923741113E+00, -1.184239356739737E+00,  1.279841163011424E-04,  1.153854135217314E-02, -2.506443186200101E-02, -4.387152433294391E-04,  1.349742443712298E-02,  2.337006596213974E+00,  2.753552601513558E-03,
2460942.058333333, A.D. 2025-Sep-23 13:24:00.0000, -2.014258825372464E+00, -1.185283624984266E+00,  1.097043685053001E-04,  1.155418014709135E-02, -2.506044208899623E-02, -4.387126347393815E-04,  1.349808682243306E-02,  2.337121284675177E+00,  2.751493568265045E-03,
2460942.100000000, A.D. 2025-Sep-23 14:24:00.0000, -2.013777075411964E+00, -1.186327726764919E+00,  9.142473144200090E-05,  1.156981775800913E-02, -2.505644159531945E-02, -4.387099275203410E-04,  1.349874871226717E-02,  2.337235887347374E+00,  2.749434730431153E-03,
2460942.141666667, A.D. 2025-Sep-23 15:24:00.0000, -2.013294673909338E+00, -1.187371661634968E+00,  7.314520930673852E-05,  1.158545416595527E-02, -2.505243038056108E-02, -4.387071175014436E-04,  1.349941010667339E-02,  2.337350404238893E+00,  2.747376097675769E-03,
2460942.183333333, A.D. 2025-Sep-23 16:24:00.0000, -2.012811620915098E+00, -1.188415429147817E+00,  5.486580645881207E-05,  1.160108935270310E-02, -2.504840845128626E-02, -4.387042013598250E-04,  1.350007100570258E-02,  2.337464835358536E+00,  2.745317682550656E-03,
2460942.225000000, A.D. 2025-Sep-23 17:24:00.0000, -2.012327916480434E+00, -1.189459028857254E+00,  3.658652734487700E-05,  1.161672330455451E-02, -2.504437581891480E-02, -4.387011784536613E-04,  1.350073140940853E-02,  2.337579180715618E+00,  2.743259496177938E-03,
2460942.266666667, A.D. 2025-Sep-23 18:24:00.0000, -2.011843560656962E+00, -1.190502460317569E+00,  1.830737636103765E-05,  1.163235601512092E-02, -2.504033249490118E-02, -4.386980519477995E-04,  1.350139131784702E-02,  2.337693440319801E+00,  2.741201543420745E-03,
2460942.308333333, A.D. 2025-Sep-23 19:24:00.0000, -2.011358553496431E+00, -1.191545723083401E+00,  2.835771269863591E-08,  1.164798748330710E-02, -2.503627848367256E-02, -4.386948272808157E-04,  1.350205073107404E-02,  2.337807614180774E+00,  2.739143821028027E-03,
2460942.350000000, A.D. 2025-Sep-23 20:24:00.0000, -2.010872895050638E+00, -1.192588816709372E+00, -1.825052460794660E-05,  1.166361770667686E-02, -2.503221378015040E-02, -4.386915085307932E-04,  1.350270964914416E-02,  2.337921702307987E+00,  2.737086322065211E-03,
2460942.391666667, A.D. 2025-Sep-23 21:24:00.0000, -2.010386585371638E+00, -1.193631740749789E+00, -3.652926668819188E-05,  1.167924667483078E-02, -2.502813837578509E-02, -4.386880953651936E-04,  1.350336807211077E-02,  2.338035704710685E+00,  2.735029044663177E-03,
2460942.433333333, A.D. 2025-Sep-23 22:24:00.0000, -2.009899624512066E+00, -1.194674494758662E+00, -5.480786453051472E-05,  1.169487437108099E-02, -2.502405226582308E-02, -4.386845844097147E-04,  1.350402600002773E-02,  2.338149621398192E+00,  2.732971994272600E-03,
2460942.475000000, A.D. 2025-Sep-23 23:24:00.0000, -2.009412012525313E+00, -1.195717078289948E+00, -7.308631397214278E-05,  1.171050077632392E-02, -2.501995545261008E-02, -4.386809714963191E-04,  1.350468343295090E-02,  2.338263452380183E+00,  2.730915182026403E-03,
2460942.516666667, A.D. 2025-Sep-24 00:24:00.0000, -2.008923749465538E+00, -1.196759490897843E+00, -9.136461070248529E-05,  1.172612587374920E-02, -2.501584794494105E-02, -4.386772540793979E-04,  1.350534037093912E-02,  2.338377197666842E+00,  2.728858620376474E-03,
2460942.558333333, A.D. 2025-Sep-24 01:24:00.0000, -2.008434835387489E+00, -1.197801732136992E+00, -1.096427503682694E-04,  1.174174965226438E-02, -2.501172975490155E-02, -4.386734328101696E-04,  1.350599681405391E-02,  2.338490857268824E+00,  2.726802318554186E-03,
